NORAD_CAT_ID,OBJECT_NAME,OBJECT_TYPE,EPOCH,MEAN_MOTION,ECCENTRICITY,INCLINATION,RA_OF_ASC_NODE,ARG_OF_PERICENTER,MEAN_ANOMALY,BSTAR,MEAN_MOTION_DOT,MEAN_MOTION_DDOT,TLE_LINE0,TLE_LINE1,TLE_LINE2,SEMIMAJOR_AXIS,PERIOD,APOGEE,PERIGEE,DECAYED
56799.0,STARLINK-5953,PAYLOAD,2023-10-20 16:16:56,14.98324269,0.0002817,69.9999,20.483,264.1702,95.9136,-7.818e-05,-1.026e-05,0.0,0 STARLINK-5953,1 56799U 23078AJ  23293.67842774 -.00001026  00000-0 -78180-4 0  9999,2 56799  69.9999  20.4830 0002817 264.1702  95.9136 14.98324269 22214,6950.211,96.107,574.033,570.118,0.0
56799.0,STARLINK-5953,PAYLOAD,2023-10-21 11:30:33,14.98316964,0.0002472,70.0007,18.4631,266.1211,93.9665,0.00011587,1.289e-05,0.0,0 STARLINK-5953,1 56799U 23078AJ  23294.47955087  .00001289  00000-0  11587-3 0  9996,2 56799  70.0007  18.4631 0002472 266.1211  93.9665 14.98316964 22596,6950.233,96.108,573.816,570.38,0.0
56799.0,STARLINK-5953,PAYLOAD,2023-10-21 22:43:28,14.98342464,0.0002713,70.0004,17.2836,271.1193,88.9655,-0.00014451,-1.817e-05,0.0,0 STARLINK-5953,1 56799U 23078AJ  23294.94685886 -.00001817  00000-0 -14451-3 0  9997,2 56799  70.0004  17.2836 0002713 271.1193  88.9655 14.98342464 22665,6950.154,96.106,573.905,570.134,0.0
56799.0,STARLINK-5953,PAYLOAD,2023-10-22 13:08:41,14.98323766,0.0002781,70.0002,15.7699,266.7814,93.3027,6.8866e-05,7.29e-06,0.0,0 STARLINK-5953,1 56799U 23078AJ  23295.54770692  .00000729  00000-0  68866-4 0  9993,2 56799  70.0002  15.7699 0002781 266.7814  93.3027 14.98323766 22755,6950.212,96.107,574.01,570.144,0.0
56799.0,STARLINK-5953,PAYLOAD,2023-10-22 14:44:49,14.98323701,0.000271,70.0003,15.6019,266.2716,93.8133,6.6839e-05,7.05e-06,0.0,0 STARLINK-5953,1 56799U 23078AJ  23295.61446740  .00000705  00000-0  66839-4 0  9997,2 56799  70.0003  15.6019 0002710 266.2716  93.8133 14.98323701 22504,6950.212,96.107,573.961,570.194,0.0
56799.0,STARLINK-5953,PAYLOAD,2023-10-23 11:34:34,14.98333011,0.0002915,69.9996,13.4122,267.9095,92.1731,6.3336e-05,6.63e-06,0.0,0 STARLINK-5953,1 56799U 23078AJ  23296.48234300  .00000663  00000-0  63336-4 0  9992,2 56799  69.9996  13.4122 0002915 267.9095  92.1731 14.98333011 22891,6950.184,96.107,574.075,570.023,0.0
56799.0,STARLINK-5953,PAYLOAD,2023-10-24 11:36:33,14.98349014,0.0002918,70.0003,10.8869,266.4238,93.6587,0.00032483,3.787e-05,0.0,0 STARLINK-5953,1 56799U 23078AJ  23297.48372583  .00003787  00000-0  32483-3 0  9997,2 56799  70.0003  10.8869 0002918 266.4238  93.6587 14.98349014 23041,6950.134,96.106,574.027,569.971,0.0
56799.0,STARLINK-5953,PAYLOAD,2023-10-25 13:12:43,14.99895192,0.0009907,70.0009,8.1894,317.0692,42.9694,0.018052,0.00231938,0.0,0 STARLINK-5953,1 56799U 23078AJ  23298.55050657  .00231938  00000-0  18052-1 0  9996,2 56799  70.0009   8.1894 0009907 317.0692  42.9694 14.99895192 23205,6945.357,96.007,574.103,560.341,0.0
56799.0,STARLINK-5953,PAYLOAD,2023-10-26 06:00:00,14.98351967,0.0003248,70.0023,6.4339,269.6603,254.936,-0.0011181,-0.00013416,0.0,0 STARLINK-5953,1 56799U 23078AJ  23299.25001157 -.00013416  00000-0 -11181-2 0  9993,2 56799  70.0023   6.4339 0003248 269.6603 254.9360 14.98351967 23315,6950.125,96.106,574.247,569.733,0.0
56799.0,STARLINK-5953,PAYLOAD,2023-10-26 13:16:45,14.98327179,0.0002177,70.0015,5.6704,269.2618,90.8291,2.8951e-05,2.53e-06,0.0,0 STARLINK-5953,1 56799U 23078AJ  23299.55330269  .00000253  00000-0  28951-4 0  9993,2 56799  70.0015   5.6704 0002177 269.2618  90.8291 14.98327179 23098,6950.202,96.107,573.58,570.554,0.0
56799.0,STARLINK-5953,PAYLOAD,2023-10-26 14:52:54,14.98320101,0.0002277,70.0017,5.5015,294.6763,65.4159,-0.00050645,-6.129e-05,0.0,0 STARLINK-5953,1 56799U 23078AJ  23299.62008046 -.00006129  00000-0 -50645-3 0  9990,2 56799  70.0017   5.5015 0002277 294.6763  65.4159 14.98320101 23109,6950.224,96.108,573.671,570.506,0.0
56799.0,STARLINK-5953,PAYLOAD,2023-10-27 05:18:07,14.97764833,0.0004788,70.0001,3.9862,339.8212,20.2757,0.0092278,0.00110152,0.0,0 STARLINK-5953,1 56799U 23078AJ  23300.22092452  .00110152  00000-0  92278-2 0  9990,2 56799  70.0001   3.9862 0004788 339.8212  20.2757 14.97764833 23458,6951.941,96.143,577.135,570.478,0.0
56799.0,STARLINK-5953,PAYLOAD,2023-10-27 06:54:17,14.97767563,0.0003635,70.0007,3.8181,345.7984,14.3072,0.0092729,0.001107,0.0,0 STARLINK-5953,1 56799U 23078AJ  23300.28770158  .00110700  00000-0  92729-2 0  9992,2 56799  70.0007   3.8181 0003635 345.7984  14.3072 14.97767563 23209,6951.933,96.143,576.325,571.271,0.0
56799.0,STARLINK-5953,PAYLOAD,2023-10-27 14:55:03,14.97839963,0.0004445,70.0014,2.9769,341.2113,18.8881,0.0086571,0.00103432,0.0,0 STARLINK-5953,1 56799U 23078AJ  23300.62156699  .00103432  00000-0  86571-2 0  9990,2 56799  70.0014   2.9769 0004445 341.2113  18.8881 14.97839963 23519,6951.709,96.138,576.664,570.484,0.0
56799.0,STARLINK-5953,PAYLOAD,2023-10-27 21:19:28,14.98366539,0.0002655,70.0016,2.3031,278.378,81.7078,-0.00051842,-6.279e-05,0.0,0 STARLINK-5953,1 56799U 23078AJ  23300.88852071 -.00006279  00000-0 -51842-3 0  9992,2 56799  70.0016   2.3031 0002655 278.3780  81.7078 14.98366539 23295,6950.08,96.105,573.79,570.1,0.0
56799.0,STARLINK-5953,PAYLOAD,2023-10-28 13:20:47,14.98323408,0.0002904,69.9995,0.6199,266.8734,93.2093,-7.7249e-05,-1.014e-05,0.0,0 STARLINK-5953,1 56799U 23078AJ  23301.55610460 -.00001014  00000-0 -77249-4 0  9993,2 56799  69.9995   0.6199 0002904 266.8734  93.2093 14.98323408 23655,6950.213,96.107,574.097,570.06,0.0
56799.0,STARLINK-5953,PAYLOAD,2023-10-28 21:21:27,14.98329804,0.0002945,69.9996,359.7781,269.6948,90.3874,-4.4208e-05,-6.2e-06,0.0,0 STARLINK-5953,1 56799U 23078AJ  23301.88989985 -.00000620  00000-0 -44208-4 0  9991,2 56799  69.9996 359.7781 0002945 269.6948  90.3874 14.98329804 23442,6950.193,96.107,574.105,570.012,0.0
56799.0,STARLINK-5953,PAYLOAD,2023-10-30 00:00:00,14.98277017,0.0003108,70.0008,356.9786,262.3807,323.9495,0.0069589,0.00083826,0.0,0 STARLINK-5953,1 56799U 23078AJ  23303.00001157  .00083826  00000-0  69589-2 0  9997,2 56799  70.0008 356.9786 0003108 262.3807 323.9495 14.98277017 23878,6950.357,96.11,574.382,570.062,0.0
56799.0,STARLINK-5953,PAYLOAD,2023-10-30 05:24:08,14.98317399,0.0002879,69.999,356.4106,266.1345,93.9485,5.7984e-05,5.99e-06,0.0,0 STARLINK-5953,1 56799U 23078AJ  23303.22510343  .00000599  00000-0  57984-4 0  9997,2 56799  69.9990 356.4106 0002879 266.1345  93.9485 14.98317399 23904,6950.232,96.108,574.098,570.096,0.0
56799.0,STARLINK-5953,PAYLOAD,2023-10-30 21:25:29,14.98322233,0.000274,70.0002,354.7266,267.8858,92.1987,1.417e-05,7.6e-07,0.0,0 STARLINK-5953,1 56799U 23078AJ  23303.89270513  .00000076  00000-0  14170-4 0  9992,2 56799  70.0002 354.7266 0002740 267.8858  92.1987 14.98322233 23746,6950.217,96.107,573.986,570.178,0.0
56799.0,STARLINK-5953,PAYLOAD,2023-10-31 03:50:00,14.98352396,0.0001598,70.0004,354.0534,274.7328,85.3648,0.0002197,2.531e-05,0.0,0 STARLINK-5953,1 56799U 23078AJ  23304.15972443  .00002531  00000-0  21970-3 0  9996,2 56799  70.0004 354.0534 0001598 274.7328  85.3648 14.98352396 24043,6950.124,96.106,573.099,570.878,0.0
56799.0,STARLINK-5953,PAYLOAD,2023-10-31 11:50:40,14.98348606,0.0002508,70.0008,353.2118,261.6368,98.4507,0.00013894,1.566e-05,0.0,0 STARLINK-5953,1 56799U 23078AJ  23304.49352736  .00001566  00000-0  13894-3 0  9993,2 56799  70.0008 353.2118 0002508 261.6368  98.4507 14.98348606 24090,6950.135,96.106,573.743,570.257,0.0
56799.0,STARLINK-5953,PAYLOAD,2023-10-31 13:26:49,14.98333968,0.0002645,70.0006,353.0434,272.7607,87.3249,-2.1587e-05,-3.51e-06,0.0,0 STARLINK-5953,1 56799U 23078AJ  23304.56030041 -.00000351  00000-0 -21587-4 0  9995,2 56799  70.0006 353.0434 0002645 272.7607  87.3249 14.98333968 23845,6950.181,96.107,573.884,570.207,0.0
56799.0,STARLINK-5953,PAYLOAD,2023-11-01 13:28:50,14.9832952,0.0002636,70.0004,350.5191,266.626,93.4597,8.4909e-05,9.2e-06,0.0,0 STARLINK-5953,1 56799U 23078AJ  23305.56170003  .00000920  00000-0  84909-4 0  9996,2 56799  70.0004 350.5191 0002636 266.6260  93.4597 14.98329520 23991,6950.194,96.107,573.891,570.227,0.0
56799.0,STARLINK-5953,PAYLOAD,2023-11-02 11:54:08,14.98771888,0.0001612,70.0002,348.1609,279.2019,80.8958,0.0037711,0.00045716,0.0,0 STARLINK-5953,1 56799U 23078AJ  23306.49593251  .00045716  00000-0  37711-2 0  9992,2 56799  70.0002 348.1609 0001612 279.2019  80.8958 14.98771888 24395,6948.827,96.079,571.812,569.572,0.0
56799.0,STARLINK-5953,PAYLOAD,2023-11-02 13:30:52,14.98354942,0.0002095,70.0,347.9934,265.038,95.054,-0.00097963,-0.00011769,0.0,0 STARLINK-5953,1 56799U 23078AJ  23306.56310820 -.00011769  00000-0 -97963-3 0  9998,2 56799  70.0000 347.9934 0002095 265.0380  95.0540 14.98354942 24147,6950.116,96.105,573.437,570.525,0.0
56799.0,STARLINK-5953,PAYLOAD,2023-11-02 19:55:29,14.98274071,0.0002761,69.9999,347.32,268.3352,91.7491,-0.0011798,-0.00014121,0.0,0 STARLINK-5953,1 56799U 23078AJ  23306.83020079 -.00014121  00000-0 -11798-2 0  9998,2 56799  69.9999 347.3200 0002761 268.3352  91.7491 14.98274071 24441,6950.366,96.111,574.15,570.312,0.0
56799.0,STARLINK-5953,PAYLOAD,2023-11-03 03:56:04,14.98334801,0.0002785,69.9995,346.4785,266.1306,93.9535,1.714e-05,1.12e-06,0.0,0 STARLINK-5953,1 56799U 23078AJ  23307.16393702  .00000112  00000-0  17140-4 0  9993,2 56799  69.9995 346.4785 0002785 266.1306  93.9535 14.98334801 24492,6950.178,96.107,573.979,570.107,0.0
56799.0,STARLINK-5953,PAYLOAD,2023-11-03 11:56:44,14.98333231,0.0002725,69.9994,345.6374,264.4214,95.6635,1.4116e-05,7.5e-07,0.0,0 STARLINK-5953,1 56799U 23078AJ  23307.49773713  .00000075  00000-0  14116-4 0  9991,2 56799  69.9994 345.6374 0002725 264.4214  95.6635 14.98333231 24282,6950.183,96.107,573.942,570.154,0.0
56799.0,STARLINK-5953,PAYLOAD,2023-11-04 03:58:05,14.98330813,0.0002904,69.9991,343.9536,264.55,95.5328,-3.8497e-05,-5.52e-06,0.0,0 STARLINK-5953,1 56799U 23078AJ  23308.16533882 -.00000552  00000-0 -38497-4 0  9997,2 56799  69.9991 343.9536 0002904 264.5500  95.5328 14.98330813 24649,6950.19,96.107,574.074,570.037,0.0
